start=new Date('2023-01-15T00:00:00.000Z').valueOf();
sats=[{"ELEMENT_SET_NO":"999","EPOCH":"2023-01-14T04:01:08.331456","OBJECT_ID":"2022-083AH","FILE":"3744657","REF_FRAME":"TEME","ARG_OF_PERICENTER":"66.8009","APOAPSIS":"540.587","BSTAR":"0.00259940000000","RA_OF_ASC_NODE":"289.0227","OBJECT_NAME":"STARLINK-4104","MEAN_MOTION_DOT":"0.00041367","COUNTRY_CODE":"US","OBJECT_TYPE":"PAYLOAD","GP_ID":"222996612","CENTER_NAME":"EARTH","SEMIMAJOR_AXIS":"6917.767","RCS_SIZE":"LARGE","INCLINATION":"53.2139","SITE":"AFETR","TLE_LINE1":"1 53163U 22083AH  23014.16745754  .00041367  00000-0  25994-2 0  9994","CLASSIFICATION_TYPE":"U","TIME_SYSTEM":"UTC","EPHEMERIS_TYPE":"0","ECCENTRICITY":"0.00013800","MEAN_MOTION_DDOT":"0.0000000000000","PERIOD":"95.435","TLE_LINE2":"2 53163  53.2139 289.0227 0001380  66.8009 293.3128 15.08876982 28309","MEAN_ANOMALY":"293.3128","MEAN_MOTION":"15.08876982","DECAY_DATE":null,"REV_AT_EPOCH":"2830","PERIAPSIS":"538.678","LAUNCH_DATE":"2022-07-17","MEAN_ELEMENT_THEORY":"SGP4","NORAD_CAT_ID":"53163"},{"LAUNCH_DATE":"2022-07-17","MEAN_ELEMENT_THEORY":"SGP4","NORAD_CAT_ID":"53164","PERIAPSIS":"538.345","REV_AT_EPOCH":"2834","DECAY_DATE":null,"MEAN_MOTION":"15.08825558","TLE_LINE2":"2 53164  53.2185 287.7846 0002088  41.4788 318.6363 15.08825558 28341","MEAN_ANOMALY":"318.6363","PERIOD":"95.438","ECCENTRICITY":"0.00020880","MEAN_MOTION_DDOT":"0.0000000000000","EPHEMERIS_TYPE":"0","TIME_SYSTEM":"UTC","CLASSIFICATION_TYPE":"U","TLE_LINE1":"1 53164U 22083AJ  23014.44249714 -.00001588  00000-0 -81734-4 0  9990","SITE":"AFETR","INCLINATION":"53.2185","RCS_SIZE":"LARGE","SEMIMAJOR_AXIS":"6917.925","CENTER_NAME":"EARTH","GP_ID":"222996108","COUNTRY_CODE":"US","OBJECT_TYPE":"PAYLOAD","MEAN_MOTION_DOT":"-0.00001588","OBJECT_NAME":"STARLINK-4116","RA_OF_ASC_NODE":"287.7846","BSTAR":"-0.00008173400000","APOAPSIS":"541.234","ARG_OF_PERICENTER":"41.4788","REF_FRAME":"TEME","FILE":"3744624","OBJECT_ID":"2022-083AJ","EPOCH":"2023-01-14T10:37:11.752896","ELEMENT_SET_NO":"999"},{"GP_ID":"223023568","COUNTRY_CODE":"US","OBJECT_TYPE":"PAYLOAD","CENTER_NAME":"EARTH","MEAN_MOTION_DOT":"0.00018046","OBJECT_NAME":"STARLINK-4090","APOAPSIS":"540.751","ARG_OF_PERICENTER":"44.1866","REF_FRAME":"TEME","RA_OF_ASC_NODE":"286.6704","BSTAR":"0.00114870000000","EPOCH":"2023-01-14T16:37:32.806848","ELEMENT_SET_NO":"999","FILE":"3745056","OBJECT_ID":"2022-083AK","MEAN_ELEMENT_THEORY":"SGP4","LAUNCH_DATE":"2022-07-17","NORAD_CAT_ID":"53165","REV_AT_EPOCH":"2838","PERIAPSIS":"538.673","DECAY_DATE":null,"MEAN_MOTION":"15.08850832","PERIOD":"95.437","MEAN_ANOMALY":"315.9246","TLE_LINE2":"2 53165  53.2154 286.6704 0001502  44.1866 315.9246 15.08850832 28383","CLASSIFICATION_TYPE":"U","TLE_LINE1":"1 53165U 22083AK  23014.69274082  .00018046  00000-0  11487-2 0  9995","MEAN_MOTION_DDOT":"0.0000000000000","ECCENTRICITY":"0.00015020","EPHEMERIS_TYPE":"0","TIME_SYSTEM":"UTC","RCS_SIZE":"LARGE","SEMIMAJOR_AXIS":"6917.847","SITE":"AFETR","INCLINATION":"53.2154"},{"MEAN_MOTION_DOT":"0.00018132","OBJECT_NAME":"STARLINK-4110","CENTER_NAME":"EARTH","GP_ID":"222996117","OBJECT_TYPE":"PAYLOAD","COUNTRY_CODE":"US","OBJECT_ID":"2022-083AL","FILE":"3744619","EPOCH":"2023-01-14T04:05:03.244416","ELEMENT_SET_NO":"999","BSTAR":"0.00115390000000","RA_OF_ASC_NODE":"289.0134","APOAPSIS":"541.041","REF_FRAME":"TEME","ARG_OF_PERICENTER":"53.1339","TLE_LINE2":"2 53166  53.2157 289.0134 0001939  53.1339 306.9831 15.08854893 28303","MEAN_ANOMALY":"306.9831","PERIOD":"95.437","PERIAPSIS":"538.358","REV_AT_EPOCH":"2830","MEAN_ELEMENT_THEORY":"SGP4","LAUNCH_DATE":"2022-07-17","NORAD_CAT_ID":"53166","DECAY_DATE":null,"MEAN_MOTION":"15.08854893","SITE":"AFETR","INCLINATION":"53.2157","RCS_SIZE":"LARGE","SEMIMAJOR_AXIS":"6917.835","MEAN_MOTION_DDOT":"0.0000000000000","ECCENTRICITY":"0.00019390","TIME_SYSTEM":"UTC","EPHEMERIS_TYPE":"0","CLASSIFICATION_TYPE":"U","TLE_LINE1":"1 53166U 22083AL  23014.17017644  .00018132  00000-0  11539-2 0  9992"},{"ARG_OF_PERICENTER":"75.4805","REF_FRAME":"TEME","APOAPSIS":"541.567","RA_OF_ASC_NODE":"272.7572","BSTAR":"0.00158980000000","ELEMENT_SET_NO":"999","EPOCH":"2023-01-14T10:43:13.301472","FILE":"3744619","OBJECT_ID":"2022-083AM","COUNTRY_CODE":"US","OBJECT_TYPE":"PAYLOAD","GP_ID":"222996110","CENTER_NAME":"EARTH","OBJECT_NAME":"STARLINK-3683","MEAN_MOTION_DOT":"0.00025117","CLASSIFICATION_TYPE":"U","TLE_LINE1":"1 53167U 22083AM  23014.44668173  .00025117  00000-0  15898-2 0  9995","EPHEMERIS_TYPE":"0","TIME_SYSTEM":"UTC","MEAN_MOTION_DDOT":"0.0000000000000","ECCENTRICITY":"0.00027120","SEMIMAJOR_AXIS":"6917.826","RCS_SIZE":"LARGE","INCLINATION":"53.2144","SITE":"AFETR","MEAN_MOTION":"15.08857848","DECAY_DATE":null,"LAUNCH_DATE":"2022-07-17","MEAN_ELEMENT_THEORY":"SGP4","NORAD_CAT_ID":"53167","REV_AT_EPOCH":"2855","PERIAPSIS":"537.815","PERIOD":"95.436","TLE_LINE2":"2 53167  53.2144 272.7572 0002712  75.4805 284.6487 15.08857848 28559","MEAN_ANOMALY":"284.6487"},{"CENTER_NAME":"EARTH","OBJECT_TYPE":"PAYLOAD","COUNTRY_CODE":"US","GP_ID":"223023583","OBJECT_NAME":"STARLINK-4105","MEAN_MOTION_DOT":"0.00001653","BSTAR":"0.00012198000000","RA_OF_ASC_NODE":"286.3515","REF_FRAME":"TEME","ARG_OF_PERICENTER":"51.9765","APOAPSIS":"540.916","OBJECT_ID":"2022-083AN","FILE":"3745051","ELEMENT_SET_NO":"999","EPOCH":"2023-01-14T18:18:14.268096","DECAY_DATE":null,"MEAN_MOTION":"15.08832476","PERIAPSIS":"538.621","REV_AT_EPOCH":"2839","LAUNCH_DATE":"2022-07-17","NORAD_CAT_ID":"53168","MEAN_ELEMENT_THEORY":"SGP4","MEAN_ANOMALY":"308.1377","TLE_LINE2":"2 53168  53.2149 286.3515 0001659  51.9765 308.1377 15.08832476 28398","PERIOD":"95.438","TIME_SYSTEM":"UTC","EPHEMERIS_TYPE":"0","MEAN_MOTION_DDOT":"0.0000000000000","ECCENTRICITY":"0.00016590","CLASSIFICATION_TYPE":"U","TLE_LINE1":"1 53168U 22083AN  23014.76266514  .00001653  00000-0  12198-3 0  9994","INCLINATION":"53.2149","SITE":"AFETR","SEMIMAJOR_AXIS":"6917.903","RCS_SIZE":"LARGE"},{"OBJECT_NAME":"STARLINK-4117","MEAN_MOTION_DOT":"-0.00003058","CENTER_NAME":"EARTH","OBJECT_TYPE":"PAYLOAD","COUNTRY_CODE":"US","GP_ID":"222982688","FILE":"3743984","OBJECT_ID":"2022-083AP","ELEMENT_SET_NO":"999","EPOCH":"2023-01-14T00:02:00.738816","RA_OF_ASC_NODE":"274.7525","BSTAR":"-0.00017417000000","ARG_OF_PERICENTER":"36.5113","REF_FRAME":"TEME","APOAPSIS":"541.238","TLE_LINE2":"2 53169  53.2153 274.7525 0002080  36.5113 323.6020 15.08822527 28484","MEAN_ANOMALY":"323.6020","PERIOD":"95.439","MEAN_MOTION":"15.08822527","DECAY_DATE":null,"LAUNCH_DATE":"2022-07-17","MEAN_ELEMENT_THEORY":"SGP4","NORAD_CAT_ID":"53169","REV_AT_EPOCH":"2848","PERIAPSIS":"538.360","INCLINATION":"53.2153","SITE":"AFETR","SEMIMAJOR_AXIS":"6917.934","RCS_SIZE":"LARGE","EPHEMERIS_TYPE":"0","TIME_SYSTEM":"UTC","MEAN_MOTION_DDOT":"0.0000000000000","ECCENTRICITY":"0.00020800","TLE_LINE1":"1 53169U 22083AP  23014.00139744 -.00003058  00000-0 -17417-3 0  9998","CLASSIFICATION_TYPE":"U"},{"MEAN_MOTION_DOT":"0.00000029","OBJECT_NAME":"STARLINK-4095","CENTER_NAME":"EARTH","GP_ID":"222982895","COUNTRY_CODE":"US","OBJECT_TYPE":"PAYLOAD","OBJECT_ID":"2022-083AQ","FILE":"3743984","EPOCH":"2023-01-14T03:11:27.297312","ELEMENT_SET_NO":"999","BSTAR":"0.00001991800000","RA_OF_ASC_NODE":"284.1709","APOAPSIS":"541.326","REF_FRAME":"TEME","ARG_OF_PERICENTER":"49.0404","TLE_LINE2":"2 53170  53.2193 284.1709 0002284  49.0404 311.0786 15.08839952 28364","MEAN_ANOMALY":"311.0786","PERIOD":"95.438","REV_AT_EPOCH":"2836","PERIAPSIS":"538.165","NORAD_CAT_ID":"53170","LAUNCH_DATE":"2022-07-17","MEAN_ELEMENT_THEORY":"SGP4","DECAY_DATE":null,"MEAN_MOTION":"15.08839952","SITE":"AFETR","INCLINATION":"53.2193","RCS_SIZE":"LARGE","SEMIMAJOR_AXIS":"6917.881","MEAN_MOTION_DDOT":"0.0000000000000","ECCENTRICITY":"0.00022840","TIME_SYSTEM":"UTC","EPHEMERIS_TYPE":"0","TLE_LINE1":"1 53170U 22083AQ  23014.13295483  .00000029  00000-0  19918-4 0  9999","CLASSIFICATION_TYPE":"U"},{"TLE_LINE2":"2 53171  53.2173 257.8685 0001227  85.7536 274.3596 15.08834552 28756","MEAN_ANOMALY":"274.3596","PERIOD":"95.438","MEAN_ELEMENT_THEORY":"SGP4","LAUNCH_DATE":"2022-07-17","NORAD_CAT_ID":"53171","REV_AT_EPOCH":"2875","PERIAPSIS":"538.913","MEAN_MOTION":"15.08834552","DECAY_DATE":null,"SITE":"AFETR","INCLINATION":"53.2173","RCS_SIZE":"LARGE","SEMIMAJOR_AXIS":"6917.897","ECCENTRICITY":"0.00012270","MEAN_MOTION_DDOT":"0.0000000000000","EPHEMERIS_TYPE":"0","TIME_SYSTEM":"UTC","CLASSIFICATION_TYPE":"U","TLE_LINE1":"1 53171U 22083AR  23014.36891583  .00000021  00000-0  19424-4 0  9992","MEAN_MOTION_DOT":"0.00000021","OBJECT_NAME":"STARLINK-4052","CENTER_NAME":"EARTH","GP_ID":"222995875","OBJECT_TYPE":"PAYLOAD","COUNTRY_CODE":"US","FILE":"3744620","OBJECT_ID":"2022-083AR","ELEMENT_SET_NO":"999","EPOCH":"2023-01-14T08:51:14.327712","RA_OF_ASC_NODE":"257.8685","BSTAR":"0.00001942400000","APOAPSIS":"540.611","ARG_OF_PERICENTER":"85.7536","REF_FRAME":"TEME"},{"MEAN_ELEMENT_THEORY":"SGP4","LAUNCH_DATE":"2022-07-17","NORAD_CAT_ID":"53172","PERIAPSIS":"538.810","REV_AT_EPOCH":"2836","MEAN_MOTION":"15.08840395","DECAY_DATE":null,"MEAN_ANOMALY":"276.2085","TLE_LINE2":"2 53172  53.2155 284.1893 0001350  83.9061 276.2085 15.08840395 28364","PERIOD":"95.438","ECCENTRICITY":"0.00013500","MEAN_MOTION_DDOT":"0.0000000000000","EPHEMERIS_TYPE":"0","TIME_SYSTEM":"UTC","TLE_LINE1":"1 53172U 22083AS  23014.12927112  .00008729  00000-0  56582-3 0  9993","CLASSIFICATION_TYPE":"U","SITE":"AFETR","INCLINATION":"53.2155","RCS_SIZE":"LARGE","SEMIMAJOR_AXIS":"6917.879","CENTER_NAME":"EARTH","GP_ID":"222983721","OBJECT_TYPE":"PAYLOAD","COUNTRY_CODE":"US","MEAN_MOTION_DOT":"0.00008729","OBJECT_NAME":"STARLINK-4299","RA_OF_ASC_NODE":"284.1893","BSTAR":"0.00056582000000","APOAPSIS":"540.678","ARG_OF_PERICENTER":"83.9061","REF_FRAME":"TEME","FILE":"3744020","OBJECT_ID":"2022-083AS","ELEMENT_SET_NO":"999","EPOCH":"2023-01-14T03:06:09.024768"}];
